{"type": "FeatureCollection", "features": [ {"type": "Feature", "properties": {"norad_id": 58662, "name": "TIANMU-1 21", "group": "weather", "lat": 3.0744044317367734, "lon": 98.27919713474864, "alt_km": 474.5091450160762, "timestamp": "2025-12-11T07:02:23.376864+00:00", "meta": {"OBJECT_NAME": "TIANMU-1 21", "OBJECT_ID": "2023-208C", "EPOCH": "2025-12-10T23:11:08.786688", "MEAN_MOTION": 15.31487409, "ECCENTRICITY": 0.00058765, "INCLINATION": 97.4372, "RA_OF_ASC_NODE": 98.3529, "ARG_OF_PERICENTER": 267.6317, "MEAN_ANOMALY": 92.4252, "EPHEMERIS_TYPE": 0, "CLASSIFICATION_TYPE": "U", "NORAD_CAT_ID": 58662, "ELEMENT_SET_NO": 999, "REV_AT_EPOCH": 10872, "BSTAR": 0.00051414348, "MEAN_MOTION_DOT": 0.00015578, "MEAN_MOTION_DDOT": 0}, "tle": {"line1": "1 58662U 23208C   25344.96607392  .00015578  00000+0  51414-3 0  9995", "line2": "2 58662  97.4372  98.3529 0005876 267.6317  92.4252 15.31487409108729"}}, "geometry": {"type": "Point", "coordinates": [98.27919713474864, 3.0744044317367734]}}, {"type": "Feature", "properties": {"norad_id": 58663, "name": "TIANMU-1 22", "group": "weather", "lat": -53.4973346652535, "lon": 106.56077372120644, "alt_km": 488.30859295870687, "timestamp": "2025-12-11T07:02:23.376874+00:00", "meta": {"OBJECT_NAME": "TIANMU-1 22", "OBJECT_ID": "2023-208D", "EPOCH": "2025-12-10T21:50:36.873600", "MEAN_MOTION": 15.27553057, "ECCENTRICITY": 0.00027196, "INCLINATION": 97.438, "RA_OF_ASC_NODE": 96.0105, "ARG_OF_PERICENTER": 296.9865, "MEAN_ANOMALY": 63.1096, "EPHEMERIS_TYPE": 0, "CLASSIFICATION_TYPE": "U", "NORAD_CAT_ID": 58663, "ELEMENT_SET_NO": 999, "REV_AT_EPOCH": 10855, "BSTAR": 0.00047262045, "MEAN_MOTION_DOT": 0.00012672, "MEAN_MOTION_DDOT": 0}, "tle": {"line1": "1 58663U 23208D   25344.91014900  .00012672  00000+0  47262-3 0  9996", "line2": "2 58663  97.4380  96.0105 0002719 296.9865  63.1096 15.27553057108550"}}, "geometry": {"type": "Point", "coordinates": [106.56077372120644, -53.4973346652535]}}, {"type": "Feature", "properties": {"norad_id": 58700, "name": "TIANMU-1 15", "group": "weather", "lat": 82.5115404800932, "lon": 72.53605837171251, "alt_km": 487.3544758330754, "timestamp": "2025-12-11T07:02:23.376886+00:00", "meta": {"OBJECT_NAME": "TIANMU-1 15", "OBJECT_ID": "2024-004A", "EPOCH": "2025-12-10T22:46:06.160224", "MEAN_MOTION": 15.24640913, "ECCENTRICITY": 0.00052516, "INCLINATION": 97.4631, "RA_OF_ASC_NODE": 166.4251, "ARG_OF_PERICENTER": 306.0762, "MEAN_ANOMALY": 53.9989, "EPHEMERIS_TYPE": 0, "CLASSIFICATION_TYPE": "U", "NORAD_CAT_ID": 58700, "ELEMENT_SET_NO": 999, "REV_AT_EPOCH": 10707, "BSTAR": 0.00041581562, "MEAN_MOTION_DOT": 0.00010202, "MEAN_MOTION_DDOT": 0}, "tle": {"line1": "1 58700U 24004A   25344.94868241  .00010202  00000+0  41582-3 0  9997", "line2": "2 58700  97.4631 166.4251 0005251 306.0762  53.9989 15.24640913107077"}}, "geometry": {"type": "Point", "coordinates": [72.53605837171251, 82.5115404800932]}}, {"type": "Feature", "properties": {"norad_id": 58701, "name": "TIANMU-1 16", "group": "weather", "lat": 6.246342583972277, "lon": -13.020092834534877, "alt_km": 496.82403910411995, "timestamp": "2025-12-11T07:02:23.376897+00:00", "meta": {"OBJECT_NAME": "TIANMU-1 16", "OBJECT_ID": "2024-004B", "EPOCH": "2025-12-10T22:24:12.186432", "MEAN_MOTION": 15.24392406, "ECCENTRICITY": 0.00045825, "INCLINATION": 97.4571, "RA_OF_ASC_NODE": 165.8004, "ARG_OF_PERICENTER": 304.1427, "MEAN_ANOMALY": 55.9376, "EPHEMERIS_TYPE": 0, "CLASSIFICATION_TYPE": "U", "NORAD_CAT_ID": 58701, "ELEMENT_SET_NO": 999, "REV_AT_EPOCH": 10707, "BSTAR": 0.00043821641, "MEAN_MOTION_DOT": 0.00010675, "MEAN_MOTION_DDOT": 0}, "tle": {"line1": "1 58701U 24004B   25344.93347438  .00010675  00000+0  43822-3 0  9990", "line2": "2 58701  97.4571 165.8004 0004582 304.1427  55.9376 15.24392406107076"}}, "geometry": {"type": "Point", "coordinates": [-13.020092834534877, 6.246342583972277]}}, {"type": "Feature", "properties": {"norad_id": 58702, "name": "TIANMU-1 17", "group": "weather", "lat": -75.79451646273199, "lon": -44.608186811108304, "alt_km": 498.09189278613576, "timestamp": "2025-12-11T07:02:23.376907+00:00", "meta": {"OBJECT_NAME": "TIANMU-1 17", "OBJECT_ID": "2024-004C", "EPOCH": "2025-12-10T23:36:37.080864", "MEAN_MOTION": 15.24438842, "ECCENTRICITY": 0.00037749, "INCLINATION": 97.4605, "RA_OF_ASC_NODE": 166.2596, "ARG_OF_PERICENTER": 307.9556, "MEAN_ANOMALY": 52.134, "EPHEMERIS_TYPE": 0, "CLASSIFICATION_TYPE": "U", "NORAD_CAT_ID": 58702, "ELEMENT_SET_NO": 999, "REV_AT_EPOCH": 10707, "BSTAR": 0.00043781681, "MEAN_MOTION_DOT": 0.00010679, "MEAN_MOTION_DDOT": 0}, "tle": {"line1": "1 58702U 24004C   25344.98376251  .00010679  00000+0  43782-3 0  9990", "line2": "2 58702  97.4605 166.2596 0003774 307.9556  52.1340 15.24438842107077"}}, "geometry": {"type": "Point", "coordinates": [-44.608186811108304, -75.79451646273199]}}, {"type": "Feature", "properties": {"norad_id": 58703, "name": "TIANMU-1 18", "group": "weather", "lat": -10.540322627450472, "lon": 168.1603677402342, "alt_km": 495.2457154546464, "timestamp": "2025-12-11T07:02:23.376917+00:00", "meta": {"OBJECT_NAME": "TIANMU-1 18", "OBJECT_ID": "2024-004D", "EPOCH": "2025-12-10T23:12:34.168896", "MEAN_MOTION": 15.24426696, "ECCENTRICITY": 0.0003116, "INCLINATION": 97.4622, "RA_OF_ASC_NODE": 166.438, "ARG_OF_PERICENTER": 308.9141, "MEAN_ANOMALY": 51.1818, "EPHEMERIS_TYPE": 0, "CLASSIFICATION_TYPE": "U", "NORAD_CAT_ID": 58703, "ELEMENT_SET_NO": 999, "REV_AT_EPOCH": 10707, "BSTAR": 0.00040309893, "MEAN_MOTION_DOT": 9.822e-05, "MEAN_MOTION_DDOT": 0}, "tle": {"line1": "1 58703U 24004D   25344.96706214  .00009822  00000+0  40310-3 0  9997", "line2": "2 58703  97.4622 166.4380 0003116 308.9141  51.1818 15.24426696107074"}}, "geometry": {"type": "Point", "coordinates": [168.1603677402342, -10.540322627450472]}}, {"type": "Feature", "properties": {"norad_id": 58990, "name": "INSAT-3DS", "group": "weather", "lat": -0.00859190861847686, "lon": -92.06868987130687, "alt_km": 35778.905724236254, "timestamp": "2025-12-11T07:02:23.376929+00:00", "meta": {"OBJECT_NAME": "INSAT-3DS", "OBJECT_ID": "2024-033A", "EPOCH": "2025-12-10T20:46:49.479744", "MEAN_MOTION": 1.002745, "ECCENTRICITY": 0.00015251, "INCLINATION": 0.0359, "RA_OF_ASC_NODE": 129.2475, "ARG_OF_PERICENTER": 134.2355, "MEAN_ANOMALY": 210.134, "EPHEMERIS_TYPE": 0, "CLASSIFICATION_TYPE": "U", "NORAD_CAT_ID": 58990, "ELEMENT_SET_NO": 999, "REV_AT_EPOCH": 4518, "BSTAR": 0, "MEAN_MOTION_DOT": -1.51e-06, "MEAN_MOTION_DDOT": 0}, "tle": {"line1": "1 58990U 24033A   25344.86585046 -.00000151  00000+0  00000+0 0  9999", "line2": "2 58990   0.0359 129.2475 0001525 134.2355 210.1340  1.00274500 45184"}}, "geometry": {"type": "Point", "coordinates": [-92.06868987130687, -0.00859190861847686]}}, {"type": "Feature", "properties": {"norad_id": 59051, "name": "METEOR-M2 4", "group": "weather", "lat": -25.140378333654027, "lon": -53.66580572909593, "alt_km": 818.2575895502132, "timestamp": "2025-12-11T07:02:23.376940+00:00", "meta": {"OBJECT_NAME": "METEOR-M2 4", "OBJECT_ID": "2024-039A", "EPOCH": "2025-12-10T22:43:04.266624", "MEAN_MOTION": 14.22400886, "ECCENTRICITY": 0.00071327, "INCLINATION": 98.6764, "RA_OF_ASC_NODE": 301.8836, "ARG_OF_PERICENTER": 3.6548, "MEAN_ANOMALY": 356.4681, "EPHEMERIS_TYPE": 0, "CLASSIFICATION_TYPE": "U", "NORAD_CAT_ID": 59051, "ELEMENT_SET_NO": 999, "REV_AT_EPOCH": 9250, "BSTAR": 6.1688795e-05, "MEAN_MOTION_DOT": 9.4e-07, "MEAN_MOTION_DDOT": 0}, "tle": {"line1": "1 59051U 24039A   25344.94657716  .00000094  00000+0  61689-4 0  9997", "line2": "2 59051  98.6764 301.8836 0007132   3.6548 356.4681 14.22400886 92504"}}, "geometry": {"type": "Point", "coordinates": [-53.66580572909593, -25.140378333654027]}}, {"type": "Feature", "properties": {"norad_id": 60133, "name": "GOES 19", "group": "weather", "lat": -0.00014665723644213184, "lon": 110.67154967438347, "alt_km": 35791.644651066024, "timestamp": "2025-12-11T07:02:23.376954+00:00", "meta": {"OBJECT_NAME": "GOES 19", "OBJECT_ID": "2024-119A", "EPOCH": "2025-12-10T20:02:01.271616", "MEAN_MOTION": 1.00271191, "ECCENTRICITY": 0.00013339, "INCLINATION": 0.0087, "RA_OF_ASC_NODE": 100.8993, "ARG_OF_PERICENTER": 207.6379, "MEAN_ANOMALY": 356.5905, "EPHEMERIS_TYPE": 0, "CLASSIFICATION_TYPE": "U", "NORAD_CAT_ID": 60133, "ELEMENT_SET_NO": 999, "REV_AT_EPOCH": 507, "BSTAR": 0, "MEAN_MOTION_DOT": -2.43e-06, "MEAN_MOTION_DDOT": 0}, "tle": {"line1": "1 60133U 24119A   25344.83473694 -.00000243  00000+0  00000+0 0  9990", "line2": "2 60133   0.0087 100.8993 0001333 207.6379 356.5905  1.00271191  5071"}}, "geometry": {"type": "Point", "coordinates": [110.67154967438347, -0.00014665723644213184]}}, {"type": "Feature", "properties": {"norad_id": 65815, "name": "FENGYUN 3H", "group": "weather", "lat": -45.98824600633825, "lon": 95.84043820116617, "alt_km": 832.7257140765432, "timestamp": "2025-12-11T07:02:23.376964+00:00", "meta": {"OBJECT_NAME": "FENGYUN 3H", "OBJECT_ID": "2025-219A", "EPOCH": "2025-12-10T21:31:11.673696", "MEAN_MOTION": 14.1990391, "ECCENTRICITY": 6.038e-05, "INCLINATION": 98.6582, "RA_OF_ASC_NODE": 284.5271, "ARG_OF_PERICENTER": 88.5652, "MEAN_ANOMALY": 271.5594, "EPHEMERIS_TYPE": 0, "CLASSIFICATION_TYPE": "U", "NORAD_CAT_ID": 65815, "ELEMENT_SET_NO": 999, "REV_AT_EPOCH": 1066, "BSTAR": 0.00010561816, "MEAN_MOTION_DOT": 1.81e-06, "MEAN_MOTION_DDOT": 0}, "tle": {"line1": "1 65815U 25219A   25344.89666289  .00000181  00000+0  10562-3 0  9992", "line2": "2 65815  98.6582 284.5271 0000603  88.5652 271.5594 14.19903910 10660"}}, "geometry": {"type": "Point", "coordinates": [95.84043820116617, -45.98824600633825]}}]}